[{"OBJECT_NAME":"COSMOS 2251 DEB","OBJECT_ID":"1993-036HG","EPOCH":"2023-09-15T09:11:01.151808","MEAN_MOTION":14.45171396,"ECCENTRICITY":0.0022637,"INCLINATION":74.0385,"RA_OF_ASC_NODE":222.3791,"ARG_OF_PERICENTER":211.8834,"MEAN_ANOMALY":305.3219,"EPHEMERIS_TYPE":0,"CLASSIFICATION_TYPE":"U","NORAD_CAT_ID":34021,"ELEMENT_SET_NO":999,"REV_AT_EPOCH":76773,"BSTAR":0.00064951,"MEAN_MOTION_DOT":2.255e-5,"MEAN_MOTION_DDOT":0},{"OBJECT_NAME":"COSMOS 2251 DEB","OBJECT_ID":"1993-036HH","EPOCH":"2023-09-15T09:03:51.719616","MEAN_MOTION":14.36828763,"ECCENTRICITY":0.0024083,"INCLINATION":74.0571,"RA_OF_ASC_NODE":338.0188,"ARG_OF_PERICENTER":251.9744,"MEAN_ANOMALY":188.0608,"EPHEMERIS_TYPE":0,"CLASSIFICATION_TYPE":"U","NORAD_CAT_ID":34022,"ELEMENT_SET_NO":999,"REV_AT_EPOCH":76418,"BSTAR":0.00031741,"MEAN_MOTION_DOT":9.15e-6,"MEAN_MOTION_DDOT":0},{"OBJECT_NAME":"COSMOS 2251 DEB","OBJECT_ID":"1993-036HJ","EPOCH":"2023-09-15T14:28:56.509248","MEAN_MOTION":14.3737099,"ECCENTRICITY":0.0020645,"INCLINATION":74.028,"RA_OF_ASC_NODE":323.8415,"ARG_OF_PERICENTER":262.9415,"MEAN_ANOMALY":223.9121,"EPHEMERIS_TYPE":0,"CLASSIFICATION_TYPE":"U","NORAD_CAT_ID":34023,"ELEMENT_SET_NO":999,"REV_AT_EPOCH":76431,"BSTAR":0.00038058,"MEAN_MOTION_DOT":1.113e-5,"MEAN_MOTION_DDOT":0},{"OBJECT_NAME":"COSMOS 2251 DEB","OBJECT_ID":"1993-036HK","EPOCH":"2023-09-15T10:49:35.529024","MEAN_MOTION":14.33782243,"ECCENTRICITY":0.0022838,"INCLINATION":74.0493,"RA_OF_ASC_NODE":15.7209,"ARG_OF_PERICENTER":272.5191,"MEAN_ANOMALY":155.0583,"EPHEMERIS_TYPE":0,"CLASSIFICATION_TYPE":"U","NORAD_CAT_ID":34024,"ELEMENT_SET_NO":999,"REV_AT_EPOCH":76275,"BSTAR":0.00029315,"MEAN_MOTION_DOT":7.91e-6,"MEAN_MOTION_DDOT":0},{"OBJECT_NAME":"COSMOS 2251 DEB","OBJECT_ID":"1993-036HM","EPOCH":"2023-09-15T10:40:44.440320","MEAN_MOTION":13.61927692,"ECCENTRICITY":0.0360996,"INCLINATION":73.7656,"RA_OF_ASC_NODE":255.801,"ARG_OF_PERICENTER":250.3834,"MEAN_ANOMALY":267.1129,"EPHEMERIS_TYPE":0,"CLASSIFICATION_TYPE":"U","NORAD_CAT_ID":34026,"ELEMENT_SET_NO":999,"REV_AT_EPOCH":72363,"BSTAR":0.001186,"MEAN_MOTION_DOT":1.386e-5,"MEAN_MOTION_DDOT":0},{"OBJECT_NAME":"COSMOS 2251 DEB","OBJECT_ID":"1993-036HP","EPOCH":"2023-09-15T04:27:26.900064","MEAN_MOTION":13.19374024,"ECCENTRICITY":0.0550101,"INCLINATION":73.8835,"RA_OF_ASC_NODE":162.6411,"ARG_OF_PERICENTER":77.2179,"MEAN_ANOMALY":68.8881,"EPHEMERIS_TYPE":0,"CLASSIFICATION_TYPE":"U","NORAD_CAT_ID":34028,"ELEMENT_SET_NO":999,"REV_AT_EPOCH":70193,"BSTAR":0.00094886,"MEAN_MOTION_DOT":8.17e-6,"MEAN_MOTION_DDOT":0},{"OBJECT_NAME":"COSMOS 2251 DEB","OBJECT_ID":"1993-036HQ","EPOCH":"2023-09-15T06:40:45.829344","MEAN_MOTION":15.9751567,"ECCENTRICITY":0.0025788,"INCLINATION":73.9112,"RA_OF_ASC_NODE":203.4098,"ARG_OF_PERICENTER":204.1615,"MEAN_ANOMALY":155.8415,"EPHEMERIS_TYPE":0,"CLASSIFICATION_TYPE":"U","NORAD_CAT_ID":34029,"ELEMENT_SET_NO":999,"REV_AT_EPOCH":78999,"BSTAR":0.0067981,"MEAN_MOTION_DOT":0.02820886,"MEAN_MOTION_DDOT":0.0073497},{"OBJECT_NAME":"COSMOS 2251 DEB","OBJECT_ID":"1993-036HS","EPOCH":"2023-09-15T08:26:47.846688","MEAN_MOTION":14.47071138,"ECCENTRICITY":0.0029764,"INCLINATION":74.0169,"RA_OF_ASC_NODE":244.4966,"ARG_OF_PERICENTER":205.2209,"MEAN_ANOMALY":279.658,"EPHEMERIS_TYPE":0,"CLASSIFICATION_TYPE":"U","NORAD_CAT_ID":34031,"ELEMENT_SET_NO":999,"REV_AT_EPOCH":76662,"BSTAR":0.0012023,"MEAN_MOTION_DOT":4.379e-5,"MEAN_MOTION_DDOT":0},{"OBJECT_NAME":"COSMOS 2251 DEB","OBJECT_ID":"1993-036HT","EPOCH":"2023-09-15T10:09:00.515232","MEAN_MOTION":14.59759173,"ECCENTRICITY":0.0036996,"INCLINATION":74.0281,"RA_OF_ASC_NODE":245.3204,"ARG_OF_PERICENTER":159.9896,"MEAN_ANOMALY":351.9663,"EPHEMERIS_TYPE":0,"CLASSIFICATION_TYPE":"U","NORAD_CAT_ID":34032,"ELEMENT_SET_NO":999,"REV_AT_EPOCH":76687,"BSTAR":0.0032446,"MEAN_MOTION_DOT":0.00015644,"MEAN_MOTION_DDOT":0},{"OBJECT_NAME":"COSMOS 2251 DEB","OBJECT_ID":"1993-036HU","EPOCH":"2023-09-15T12:38:31.523136","MEAN_MOTION":14.56614941,"ECCENTRICITY":0.0044786,"INCLINATION":73.9995,"RA_OF_ASC_NODE":282.1286,"ARG_OF_PERICENTER":128.9271,"MEAN_ANOMALY":31.3615,"EPHEMERIS_TYPE":0,"CLASSIFICATION_TYPE":"U","NORAD_CAT_ID":34033,"ELEMENT_SET_NO":999,"REV_AT_EPOCH":76512,"BSTAR":0.0024359,"MEAN_MOTION_DOT":0.00010999,"MEAN_MOTION_DDOT":0},{"OBJECT_NAME":"COSMOS 2251 DEB","OBJECT_ID":"1993-036HW","EPOCH":"2023-09-15T11:49:13.823904","MEAN_MOTION":14.37962045,"ECCENTRICITY":0.0054074,"INCLINATION":74.0691,"RA_OF_ASC_NODE":72.0175,"ARG_OF_PERICENTER":288.7069,"MEAN_ANOMALY":102.6993,"EPHEMERIS_TYPE":0,"CLASSIFICATION_TYPE":"U","NORAD_CAT_ID":34035,"ELEMENT_SET_NO":999,"REV_AT_EPOCH":76134,"BSTAR":0.0013462,"MEAN_MOTION_DOT":4.114e-5,"MEAN_MOTION_DDOT":0},{"OBJECT_NAME":"COSMOS 2251 DEB","OBJECT_ID":"1993-036HX","EPOCH":"2023-09-15T11:45:00.330624","MEAN_MOTION":14.51008035,"ECCENTRICITY":0.0037668,"INCLINATION":74.0409,"RA_OF_ASC_NODE":295.1052,"ARG_OF_PERICENTER":193.9635,"MEAN_ANOMALY":166.0488,"EPHEMERIS_TYPE":0,"CLASSIFICATION_TYPE":"U","NORAD_CAT_ID":34036,"ELEMENT_SET_NO":999,"REV_AT_EPOCH":76542,"BSTAR":0.0016602,"MEAN_MOTION_DOT":6.606e-5,"MEAN_MOTION_DDOT":0},{"OBJECT_NAME":"COSMOS 2251 DEB","OBJECT_ID":"1993-036HY","EPOCH":"2023-09-15T14:17:15.768096","MEAN_MOTION":14.30335183,"ECCENTRICITY":0.0057947,"INCLINATION":74.0507,"RA_OF_ASC_NODE":104.4797,"ARG_OF_PERICENTER":356.7135,"MEAN_ANOMALY":3.3625,"EPHEMERIS_TYPE":0,"CLASSIFICATION_TYPE":"U","NORAD_CAT_ID":34037,"ELEMENT_SET_NO":999,"REV_AT_EPOCH":75987,"BSTAR":0.00054154,"MEAN_MOTION_DOT":1.406e-5,"MEAN_MOTION_DDOT":0},{"OBJECT_NAME":"COSMOS 2251 DEB","OBJECT_ID":"1993-036HZ","EPOCH":"2023-09-15T10:52:27.549696","MEAN_MOTION":14.72195553,"ECCENTRICITY":0.0016739,"INCLINATION":74.0569,"RA_OF_ASC_NODE":174.8675,"ARG_OF_PERICENTER":17.7888,"MEAN_ANOMALY":342.3866,"EPHEMERIS_TYPE":0,"CLASSIFICATION_TYPE":"U","NORAD_CAT_ID":34038,"ELEMENT_SET_NO":999,"REV_AT_EPOCH":76998,"BSTAR":0.0037536,"MEAN_MOTION_DOT":0.00023775,"MEAN_MOTION_DDOT":0},{"OBJECT_NAME":"COSMOS 2251 DEB","OBJECT_ID":"1993-036JB","EPOCH":"2023-09-15T16:31:19.713504","MEAN_MOTION":13.64054405,"ECCENTRICITY":0.0350242,"INCLINATION":73.9604,"RA_OF_ASC_NODE":334.4373,"ARG_OF_PERICENTER":90.5431,"MEAN_ANOMALY":273.5818,"EPHEMERIS_TYPE":0,"CLASSIFICATION_TYPE":"U","NORAD_CAT_ID":34040,"ELEMENT_SET_NO":999,"REV_AT_EPOCH":72444,"BSTAR":0.0013067,"MEAN_MOTION_DOT":1.559e-5,"MEAN_MOTION_DDOT":0},{"OBJECT_NAME":"COSMOS 2251 DEB","OBJECT_ID":"1993-036JG","EPOCH":"2023-09-15T11:25:50.005344","MEAN_MOTION":14.33262908,"ECCENTRICITY":0.0027788,"INCLINATION":74.0417,"RA_OF_ASC_NODE":8.931,"ARG_OF_PERICENTER":293.6232,"MEAN_ANOMALY":144.7893,"EPHEMERIS_TYPE":0,"CLASSIFICATION_TYPE":"U","NORAD_CAT_ID":34045,"ELEMENT_SET_NO":999,"REV_AT_EPOCH":76292,"BSTAR":0.00012449,"MEAN_MOTION_DOT":3.18e-6,"MEAN_MOTION_DDOT":0}]
