COSMOS 2251 DEB         
1 34021U 93036HG  23258.38265222  .00002255  00000+0  64951-3 0  9992
2 34021  74.0385 222.3791 0022637 211.8834 305.3219 14.45171396767736
COSMOS 2251 DEB         
1 34022U 93036HH  23258.37768194  .00000915  00000+0  31741-3 0  9990
2 34022  74.0571 338.0188 0024083 251.9744 188.0608 14.36828763764182
COSMOS 2251 DEB         
1 34023U 93036HJ  23258.60343182  .00001113  00000+0  38058-3 0  9992
2 34023  74.0280 323.8415 0020645 262.9415 223.9121 14.37370990764311
COSMOS 2251 DEB         
1 34024U 93036HK  23258.45110566  .00000791  00000+0  29315-3 0  9991
2 34024  74.0493  15.7209 0022838 272.5191 155.0583 14.33782243762757
COSMOS 2251 DEB         
1 34026U 93036HM  23258.44495880  .00001386  00000+0  11860-2 0  9993
2 34026  73.7656 255.8010 0360996 250.3834 267.1129 13.61927692723635
COSMOS 2251 DEB         
1 34028U 93036HP  23258.18572801  .00000817  00000+0  94886-3 0  9993
2 34028  73.8835 162.6411 0550101  77.2179  68.8881 13.19374024701932
COSMOS 2251 DEB         
1 34029U 93036HQ  23258.27830821  .02820886  73497-2  67981-2 0  9999
2 34029  73.9112 203.4098 0025788 204.1615 155.8415 15.97515670789995
COSMOS 2251 DEB         
1 34031U 93036HS  23258.35194267  .00004379  00000+0  12023-2 0  9991
2 34031  74.0169 244.4966 0029764 205.2209 279.6580 14.47071138766623
COSMOS 2251 DEB         
1 34032U 93036HT  23258.42292263  .00015644  00000+0  32446-2 0  9993
2 34032  74.0281 245.3204 0036996 159.9896 351.9663 14.59759173766874
COSMOS 2251 DEB         
1 34033U 93036HU  23258.52675374  .00010999  00000+0  24359-2 0  9995
2 34033  73.9995 282.1286 0044786 128.9271  31.3615 14.56614941765126
COSMOS 2251 DEB         
1 34035U 93036HW  23258.49252111  .00004114  00000+0  13462-2 0  9998
2 34035  74.0691  72.0175 0054074 288.7069 102.6993 14.37962045761348
COSMOS 2251 DEB         
1 34036U 93036HX  23258.48958716  .00006606  00000+0  16602-2 0  9999
2 34036  74.0409 295.1052 0037668 193.9635 166.0488 14.51008035765426
COSMOS 2251 DEB         
1 34037U 93036HY  23258.59532139  .00001406  00000+0  54154-3 0  9997
2 34037  74.0507 104.4797 0057947 356.7135   3.3625 14.30335183759872
COSMOS 2251 DEB         
1 34038U 93036HZ  23258.45309664  .00023775  00000+0  37536-2 0  9995
2 34038  74.0569 174.8675 0016739  17.7888 342.3866 14.72195553769987
COSMOS 2251 DEB         
1 34040U 93036JB  23258.68842261  .00001559  00000+0  13067-2 0  9997
2 34040  73.9604 334.4373 0350242  90.5431 273.5818 13.64054405724444
COSMOS 2251 DEB         
1 34045U 93036JG  23258.47627321  .00000318  00000+0  12449-3 0  9993
2 34045  74.0417   8.9310 0027788 293.6232 144.7893 14.33262908762921
